[{"OBJECT_NAME":"ONEWEB-0206","OBJECT_ID":"2021-031T","EPOCH":"2026-02-15T05:54:32.622624","MEAN_MOTION":13.14505691,"ECCENTRICITY":0.0001451,"INCLINATION":87.9032,"RA_OF_ASC_NODE":314.0089,"ARG_OF_PERICENTER":76.5426,"MEAN_ANOMALY":283.5865,"EPHEMERIS_TYPE":0,"CLASSIFICATION_TYPE":"U","NORAD_CAT_ID":48227,"ELEMENT_SET_NO":999,"REV_AT_EPOCH":23220,"BSTAR":8.1897994e-5,"MEAN_MOTION_DOT":4.3e-7,"MEAN_MOTION_DDOT":0},{"OBJECT_NAME":"ONEWEB-0182","OBJECT_ID":"2021-031U","EPOCH":"2026-02-15T05:47:42.340992","MEAN_MOTION":13.14504781,"ECCENTRICITY":0.0001819,"INCLINATION":87.9018,"RA_OF_ASC_NODE":314.0254,"ARG_OF_PERICENTER":70.9017,"MEAN_ANOMALY":289.231,"EPHEMERIS_TYPE":0,"CLASSIFICATION_TYPE":"U","NORAD_CAT_ID":48228,"ELEMENT_SET_NO":999,"REV_AT_EPOCH":23241,"BSTAR":-0.00022448556,"MEAN_MOTION_DOT":-7.0e-7,"MEAN_MOTION_DDOT":0},{"OBJECT_NAME":"ONEWEB-0186","OBJECT_ID":"2021-031V","EPOCH":"2026-02-15T06:03:40.564512","MEAN_MOTION":13.14503455,"ECCENTRICITY":0.00017882,"INCLINATION":87.9025,"RA_OF_ASC_NODE":314.0093,"ARG_OF_PERICENTER":80.1653,"MEAN_ANOMALY":279.9678,"EPHEMERIS_TYPE":0,"CLASSIFICATION_TYPE":"U","NORAD_CAT_ID":48229,"ELEMENT_SET_NO":999,"REV_AT_EPOCH":23236,"BSTAR":-0.00051254468,"MEAN_MOTION_DOT":-1.77e-6,"MEAN_MOTION_DDOT":0},{"OBJECT_NAME":"ONEWEB-0181","OBJECT_ID":"2021-031W","EPOCH":"2026-02-15T05:31:43.212864","MEAN_MOTION":13.14504508,"ECCENTRICITY":0.00018472,"INCLINATION":87.9012,"RA_OF_ASC_NODE":314.0587,"ARG_OF_PERICENTER":84.5281,"MEAN_ANOMALY":275.606,"EPHEMERIS_TYPE":0,"CLASSIFICATION_TYPE":"U","NORAD_CAT_ID":48230,"ELEMENT_SET_NO":999,"REV_AT_EPOCH":23221,"BSTAR":-0.000557889,"MEAN_MOTION_DOT":-1.94e-6,"MEAN_MOTION_DDOT":0},{"OBJECT_NAME":"ONEWEB-0188","OBJECT_ID":"2021-031X","EPOCH":"2026-02-15T06:26:31.742880","MEAN_MOTION":13.14503628,"ECCENTRICITY":0.00017307,"INCLINATION":87.9015,"RA_OF_ASC_NODE":314.0487,"ARG_OF_PERICENTER":78.1981,"MEAN_ANOMALY":281.9343,"EPHEMERIS_TYPE":0,"CLASSIFICATION_TYPE":"U","NORAD_CAT_ID":48231,"ELEMENT_SET_NO":999,"REV_AT_EPOCH":23212,"BSTAR":0.0006510577,"MEAN_MOTION_DOT":2.54e-6,"MEAN_MOTION_DDOT":0},{"OBJECT_NAME":"ONEWEB-0220","OBJECT_ID":"2021-031Y","EPOCH":"2026-02-15T05:33:59.853600","MEAN_MOTION":13.14504378,"ECCENTRICITY":0.00019572,"INCLINATION":87.9029,"RA_OF_ASC_NODE":314.0122,"ARG_OF_PERICENTER":78.2395,"MEAN_ANOMALY":281.8955,"EPHEMERIS_TYPE":0,"CLASSIFICATION_TYPE":"U","NORAD_CAT_ID":48232,"ELEMENT_SET_NO":999,"REV_AT_EPOCH":23238,"BSTAR":-0.00054162947,"MEAN_MOTION_DOT":-1.88e-6,"MEAN_MOTION_DDOT":0},{"OBJECT_NAME":"ONEWEB-0165","OBJECT_ID":"2021-031Z","EPOCH":"2026-02-15T06:15:06.800832","MEAN_MOTION":13.14504825,"ECCENTRICITY":0.00017746,"INCLINATION":87.9015,"RA_OF_ASC_NODE":314.0245,"ARG_OF_PERICENTER":90.8721,"MEAN_ANOMALY":269.2612,"EPHEMERIS_TYPE":0,"CLASSIFICATION_TYPE":"U","NORAD_CAT_ID":48233,"ELEMENT_SET_NO":999,"REV_AT_EPOCH":23234,"BSTAR":0.00039634084,"MEAN_MOTION_DOT":1.6e-6,"MEAN_MOTION_DDOT":0},{"OBJECT_NAME":"ONEWEB-0199","OBJECT_ID":"2021-031AA","EPOCH":"2026-02-15T05:52:16.286880","MEAN_MOTION":13.14504568,"ECCENTRICITY":0.00016168,"INCLINATION":87.902,"RA_OF_ASC_NODE":314.0095,"ARG_OF_PERICENTER":74.4549,"MEAN_ANOMALY":285.6759,"EPHEMERIS_TYPE":0,"CLASSIFICATION_TYPE":"U","NORAD_CAT_ID":48234,"ELEMENT_SET_NO":999,"REV_AT_EPOCH":23224,"BSTAR":-9.8477e-7,"MEAN_MOTION_DOT":1.2e-7,"MEAN_MOTION_DDOT":0},{"OBJECT_NAME":"ONEWEB-0203","OBJECT_ID":"2021-031AB","EPOCH":"2026-02-15T05:38:33.399456","MEAN_MOTION":13.1450298,"ECCENTRICITY":0.00015276,"INCLINATION":87.9021,"RA_OF_ASC_NODE":314.0092,"ARG_OF_PERICENTER":83.2392,"MEAN_ANOMALY":276.8911,"EPHEMERIS_TYPE":0,"CLASSIFICATION_TYPE":"U","NORAD_CAT_ID":48235,"ELEMENT_SET_NO":999,"REV_AT_EPOCH":23225,"BSTAR":-0.0010993364,"MEAN_MOTION_DOT":-3.95e-6,"MEAN_MOTION_DDOT":0},{"OBJECT_NAME":"ONEWEB-0197","OBJECT_ID":"2021-031AC","EPOCH":"2026-02-15T05:01:50.205504","MEAN_MOTION":13.14503903,"ECCENTRICITY":0.0001877,"INCLINATION":87.9026,"RA_OF_ASC_NODE":314.0148,"ARG_OF_PERICENTER":70.0871,"MEAN_ANOMALY":290.046,"EPHEMERIS_TYPE":0,"CLASSIFICATION_TYPE":"U","NORAD_CAT_ID":48236,"ELEMENT_SET_NO":999,"REV_AT_EPOCH":23216,"BSTAR":3.6622307e-5,"MEAN_MOTION_DOT":2.6e-7,"MEAN_MOTION_DDOT":0},{"OBJECT_NAME":"ONEWEB-0194","OBJECT_ID":"2021-031AD","EPOCH":"2026-02-15T06:21:56.462112","MEAN_MOTION":13.14505825,"ECCENTRICITY":0.00014445,"INCLINATION":87.9022,"RA_OF_ASC_NODE":314.0211,"ARG_OF_PERICENTER":77.7137,"MEAN_ANOMALY":282.4154,"EPHEMERIS_TYPE":0,"CLASSIFICATION_TYPE":"U","NORAD_CAT_ID":48237,"ELEMENT_SET_NO":999,"REV_AT_EPOCH":23234,"BSTAR":0.00078694692,"MEAN_MOTION_DOT":3.05e-6,"MEAN_MOTION_DDOT":0},{"OBJECT_NAME":"ONEWEB-0193","OBJECT_ID":"2021-031AE","EPOCH":"2026-02-15T06:44:47.762304","MEAN_MOTION":13.14504543,"ECCENTRICITY":0.00012667,"INCLINATION":87.9024,"RA_OF_ASC_NODE":314.0103,"ARG_OF_PERICENTER":74.9862,"MEAN_ANOMALY":285.1407,"EPHEMERIS_TYPE":0,"CLASSIFICATION_TYPE":"U","NORAD_CAT_ID":48238,"ELEMENT_SET_NO":999,"REV_AT_EPOCH":23229,"BSTAR":0.00021049551,"MEAN_MOTION_DOT":9.1e-7,"MEAN_MOTION_DDOT":0},{"OBJECT_NAME":"ONEWEB-0191","OBJECT_ID":"2021-031AF","EPOCH":"2026-02-15T07:00:46.557792","MEAN_MOTION":13.14504428,"ECCENTRICITY":0.00016963,"INCLINATION":87.9027,"RA_OF_ASC_NODE":314.0028,"ARG_OF_PERICENTER":76.6162,"MEAN_ANOMALY":283.5157,"EPHEMERIS_TYPE":0,"CLASSIFICATION_TYPE":"U","NORAD_CAT_ID":48239,"ELEMENT_SET_NO":999,"REV_AT_EPOCH":23215,"BSTAR":-0.00031598436,"MEAN_MOTION_DOT":-1.04e-6,"MEAN_MOTION_DDOT":0},{"OBJECT_NAME":"ONEWEB-0195","OBJECT_ID":"2021-031AG","EPOCH":"2026-02-15T06:27:39.529728","MEAN_MOTION":13.14504687,"ECCENTRICITY":0.00018832,"INCLINATION":87.9023,"RA_OF_ASC_NODE":314.0046,"ARG_OF_PERICENTER":90.5514,"MEAN_ANOMALY":269.5832,"EPHEMERIS_TYPE":0,"CLASSIFICATION_TYPE":"U","NORAD_CAT_ID":48240,"ELEMENT_SET_NO":999,"REV_AT_EPOCH":23213,"BSTAR":0.00070279684,"MEAN_MOTION_DOT":2.73e-6,"MEAN_MOTION_DDOT":0},{"OBJECT_NAME":"ONEWEB-0201","OBJECT_ID":"2021-031AH","EPOCH":"2026-02-15T06:10:44.156928","MEAN_MOTION":13.14503831,"ECCENTRICITY":0.00020367,"INCLINATION":87.9013,"RA_OF_ASC_NODE":314.0375,"ARG_OF_PERICENTER":77.9112,"MEAN_ANOMALY":282.2246,"EPHEMERIS_TYPE":0,"CLASSIFICATION_TYPE":"U","NORAD_CAT_ID":48241,"ELEMENT_SET_NO":999,"REV_AT_EPOCH":23236,"BSTAR":0.00048031189,"MEAN_MOTION_DOT":1.91e-6,"MEAN_MOTION_DDOT":0},{"OBJECT_NAME":"ONEWEB-0207","OBJECT_ID":"2021-031AJ","EPOCH":"2026-02-15T05:41:59.381376","MEAN_MOTION":13.14505193,"ECCENTRICITY":0.00019141,"INCLINATION":87.9022,"RA_OF_ASC_NODE":314.0113,"ARG_OF_PERICENTER":75.6736,"MEAN_ANOMALY":284.4606,"EPHEMERIS_TYPE":0,"CLASSIFICATION_TYPE":"U","NORAD_CAT_ID":48242,"ELEMENT_SET_NO":999,"REV_AT_EPOCH":23227,"BSTAR":-0.00043734431,"MEAN_MOTION_DOT":-1.49e-6,"MEAN_MOTION_DDOT":0},{"OBJECT_NAME":"ONEWEB-0208","OBJECT_ID":"2021-031AK","EPOCH":"2026-02-15T05:15:43.823808","MEAN_MOTION":13.14503917,"ECCENTRICITY":0.0001797,"INCLINATION":87.9027,"RA_OF_ASC_NODE":314.0276,"ARG_OF_PERICENTER":87.3113,"MEAN_ANOMALY":272.8222,"EPHEMERIS_TYPE":0,"CLASSIFICATION_TYPE":"U","NORAD_CAT_ID":48243,"ELEMENT_SET_NO":999,"REV_AT_EPOCH":23228,"BSTAR":-0.0004685148,"MEAN_MOTION_DOT":-1.61e-6,"MEAN_MOTION_DDOT":0},{"OBJECT_NAME":"ONEWEB-0200","OBJECT_ID":"2021-031AL","EPOCH":"2026-02-15T06:12:49.440384","MEAN_MOTION":13.14504065,"ECCENTRICITY":0.00017874,"INCLINATION":87.9018,"RA_OF_ASC_NODE":314.0089,"ARG_OF_PERICENTER":80.6408,"MEAN_ANOMALY":279.4924,"EPHEMERIS_TYPE":0,"CLASSIFICATION_TYPE":"U","NORAD_CAT_ID":48244,"ELEMENT_SET_NO":999,"REV_AT_EPOCH":23221,"BSTAR":0.0005589197,"MEAN_MOTION_DOT":2.2e-6,"MEAN_MOTION_DDOT":0},{"OBJECT_NAME":"ONEWEB-0217","OBJECT_ID":"2021-031AM","EPOCH":"2026-02-15T06:35:39.711552","MEAN_MOTION":13.14503675,"ECCENTRICITY":0.00018345,"INCLINATION":87.9026,"RA_OF_ASC_NODE":314.0048,"ARG_OF_PERICENTER":88.539,"MEAN_ANOMALY":271.595,"EPHEMERIS_TYPE":0,"CLASSIFICATION_TYPE":"U","NORAD_CAT_ID":48245,"ELEMENT_SET_NO":999,"REV_AT_EPOCH":23216,"BSTAR":0.00047114674,"MEAN_MOTION_DOT":1.87e-6,"MEAN_MOTION_DDOT":0},{"OBJECT_NAME":"ONEWEB-0211","OBJECT_ID":"2021-045A","EPOCH":"2026-02-15T04:15:41.370624","MEAN_MOTION":13.16142473,"ECCENTRICITY":0.0001586,"INCLINATION":87.8975,"RA_OF_ASC_NODE":283.4688,"ARG_OF_PERICENTER":102.6062,"MEAN_ANOMALY":257.5246,"EPHEMERIS_TYPE":0,"CLASSIFICATION_TYPE":"U","NORAD_CAT_ID":48767,"ELEMENT_SET_NO":999,"REV_AT_EPOCH":22839,"BSTAR":0.00036719753,"MEAN_MOTION_DOT":1.52e-6,"MEAN_MOTION_DDOT":0},{"OBJECT_NAME":"ONEWEB-0223","OBJECT_ID":"2021-045B","EPOCH":"2026-02-15T04:44:07.221984","MEAN_MOTION":13.15550044,"ECCENTRICITY":0.00013527,"INCLINATION":87.8979,"RA_OF_ASC_NODE":283.5415,"ARG_OF_PERICENTER":101.1116,"MEAN_ANOMALY":259.0167,"EPHEMERIS_TYPE":0,"CLASSIFICATION_TYPE":"U","NORAD_CAT_ID":48768,"ELEMENT_SET_NO":999,"REV_AT_EPOCH":22836,"BSTAR":0.00024771118,"MEAN_MOTION_DOT":1.06e-6,"MEAN_MOTION_DDOT":0},{"OBJECT_NAME":"ONEWEB-0230","OBJECT_ID":"2021-045C","EPOCH":"2026-02-15T04:03:03.143232","MEAN_MOTION":13.15549299,"ECCENTRICITY":0.00015386,"INCLINATION":87.8965,"RA_OF_ASC_NODE":283.5721,"ARG_OF_PERICENTER":79.2514,"MEAN_ANOMALY":280.8789,"EPHEMERIS_TYPE":0,"CLASSIFICATION_TYPE":"U","NORAD_CAT_ID":48769,"ELEMENT_SET_NO":999,"REV_AT_EPOCH":22862,"BSTAR":0.00032564961,"MEAN_MOTION_DOT":1.35e-6,"MEAN_MOTION_DDOT":0},{"OBJECT_NAME":"ONEWEB-0237","OBJECT_ID":"2021-045D","EPOCH":"2026-02-15T03:47:04.300224","MEAN_MOTION":13.15549479,"ECCENTRICITY":0.00013059,"INCLINATION":87.8967,"RA_OF_ASC_NODE":283.5755,"ARG_OF_PERICENTER":89.3086,"MEAN_ANOMALY":270.8194,"EPHEMERIS_TYPE":0,"CLASSIFICATION_TYPE":"U","NORAD_CAT_ID":48770,"ELEMENT_SET_NO":999,"REV_AT_EPOCH":22834,"BSTAR":-9.487493e-6,"MEAN_MOTION_DOT":9.0e-8,"MEAN_MOTION_DDOT":0}]
